ONEWEB-0228             
1 48780U 21045P   24278.84671606  .00000006  00000+0 -18334-4 0  9999
2 48780  87.9118  22.6361 0001852 103.9960 256.1376 13.15547195162760
